KUIPER-00128            
1 65957U 25228L   25314.62463496  .00049620  00000+0  14432-2 0  9992
2 65957  51.8739 175.3070 0005604 220.8074 139.2493 15.34940014  5487
KUIPER-00129            
1 65958U 25228M   25314.91667824  .00028750  00000+0  83948-3 0  9996
2 65958  51.8786 173.8954 0005505 231.8712 306.7721 15.35077749  5319
KUIPER-00130            
1 65959U 25228N   25314.62809551 -.00503989  00000+0 -15796-1 0  9998
2 65959  51.8773 175.3228 0003835 282.3862  77.6694 15.34612251  5481
KUIPER-00134            
1 65960U 25228P   25313.26236336  .00047631  00000+0  13956-2 0  9996
2 65960  51.8772 181.9197 0004778 245.8478 114.2009 15.34730022  5276
KUIPER-00135            
1 65961U 25228Q   25314.23880637  .00024543  00000+0  72563-3 0  9991
2 65961  51.8787 177.2235 0005423 232.7787 127.2705 15.34773151  5424
KUIPER-00136            
1 65962U 25228R   25314.23174370  .00052711  00000+0  15281-2 0  9993
2 65962  51.8796 177.1782 0004699 235.7261 124.3280 15.35019913  5421
KUIPER-00137            
1 65963U 25228S   25314.04277142  .00032164  00000+0  94765-3 0  9999
2 65963  51.8789 178.1597 0005736 249.3069 110.7302 15.34734547  5395
KUIPER-00138            
1 65964U 25228T   25314.17636063  .00047045  00000+0  13875-2 0  9991
2 65964  51.8777 177.5477 0005848 254.9950 105.0388 15.34523890  5419
KUIPER-00140            
1 65965U 25228U   25314.04688202  .00017295  00000+0  52088-3 0  9994
2 65965  51.8776 178.1835 0005143 254.8108 105.2309 15.34422190  5399
KUIPER-00141            
1 65966U 25228V   25314.23455544  .00049886  00000+0  14481-2 0  9992
2 65966  51.8777 177.1871 0005632 237.2750 122.7693 15.34997370  5422
KUIPER-00146            
1 65967U 25228W   25314.62605415  .00061093  00000+0  17803-2 0  9995
2 65967  51.8780 175.3188 0005969 234.3979 125.6451 15.34783376  5481
KUIPER-00149            
1 65968U 25228X   25314.62254108  .00057413  00000+0  16560-2 0  9995
2 65968  51.8773 175.2899 0005185 232.3786 127.6730 15.35138676  5486
