CCSDS_OMM_VERS = 2.0
CREATION_DATE  = 
ORIGINATOR     = 

OBJECT_NAME    = KUIPER-00128
OBJECT_ID      = 2025-228L
CENTER_NAME    = EARTH
REF_FRAME      = TEME
TIME_SYSTEM    = UTC
MEAN_ELEMENT_THEORY = SGP/SGP4

EPOCH          = 2025-11-10T14:59:28.460544
MEAN_MOTION    = 15.34940014
ECCENTRICITY   = .00056046
INCLINATION    = 51.8739
RA_OF_ASC_NODE = 175.3070
ARG_OF_PERICENTER = 220.8074
MEAN_ANOMALY   = 139.2493

EPHEMERIS_TYPE = 0
CLASSIFICATION_TYPE = U
NORAD_CAT_ID   = 65957
ELEMENT_SET_NO = 999
REV_AT_EPOCH   = 548
BSTAR          = .14431559E-2
MEAN_MOTION_DOT = .4962E-3
MEAN_MOTION_DDOT = 0

CCSDS_OMM_VERS = 2.0
CREATION_DATE  = 
ORIGINATOR     = 

OBJECT_NAME    = KUIPER-00129
OBJECT_ID      = 2025-228M
CENTER_NAME    = EARTH
REF_FRAME      = TEME
TIME_SYSTEM    = UTC
MEAN_ELEMENT_THEORY = SGP/SGP4

EPOCH          = 2025-11-10T22:00:00.999936
MEAN_MOTION    = 15.35077749
ECCENTRICITY   = .00055053
INCLINATION    = 51.8786
RA_OF_ASC_NODE = 173.8954
ARG_OF_PERICENTER = 231.8712
MEAN_ANOMALY   = 306.7721

EPHEMERIS_TYPE = 0
CLASSIFICATION_TYPE = U
NORAD_CAT_ID   = 65958
ELEMENT_SET_NO = 999
REV_AT_EPOCH   = 531
BSTAR          = .83947655E-3
MEAN_MOTION_DOT = .2875E-3
MEAN_MOTION_DDOT = 0

CCSDS_OMM_VERS = 2.0
CREATION_DATE  = 
ORIGINATOR     = 

OBJECT_NAME    = KUIPER-00130
OBJECT_ID      = 2025-228N
CENTER_NAME    = EARTH
REF_FRAME      = TEME
TIME_SYSTEM    = UTC
MEAN_ELEMENT_THEORY = SGP/SGP4

EPOCH          = 2025-11-10T15:04:27.452064
MEAN_MOTION    = 15.34612251
ECCENTRICITY   = .00038352
INCLINATION    = 51.8773
RA_OF_ASC_NODE = 175.3228
ARG_OF_PERICENTER = 282.3862
MEAN_ANOMALY   = 77.6694

EPHEMERIS_TYPE = 0
CLASSIFICATION_TYPE = U
NORAD_CAT_ID   = 65959
ELEMENT_SET_NO = 999
REV_AT_EPOCH   = 548
BSTAR          = -.15796357E-1
MEAN_MOTION_DOT = -.503989E-2
MEAN_MOTION_DDOT = 0

CCSDS_OMM_VERS = 2.0
CREATION_DATE  = 
ORIGINATOR     = 

OBJECT_NAME    = KUIPER-00134
OBJECT_ID      = 2025-228P
CENTER_NAME    = EARTH
REF_FRAME      = TEME
TIME_SYSTEM    = UTC
MEAN_ELEMENT_THEORY = SGP/SGP4

EPOCH          = 2025-11-09T06:17:48.194304
MEAN_MOTION    = 15.34730022
ECCENTRICITY   = .00047786
INCLINATION    = 51.8772
RA_OF_ASC_NODE = 181.9197
ARG_OF_PERICENTER = 245.8478
MEAN_ANOMALY   = 114.2009

EPHEMERIS_TYPE = 0
CLASSIFICATION_TYPE = U
NORAD_CAT_ID   = 65960
ELEMENT_SET_NO = 999
REV_AT_EPOCH   = 527
BSTAR          = .13955696E-2
MEAN_MOTION_DOT = .47631E-3
MEAN_MOTION_DDOT = 0

CCSDS_OMM_VERS = 2.0
CREATION_DATE  = 
ORIGINATOR     = 

OBJECT_NAME    = KUIPER-00135
OBJECT_ID      = 2025-228Q
CENTER_NAME    = EARTH
REF_FRAME      = TEME
TIME_SYSTEM    = UTC
MEAN_ELEMENT_THEORY = SGP/SGP4

EPOCH          = 2025-11-10T05:43:52.870368
MEAN_MOTION    = 15.34773151
ECCENTRICITY   = .00054233
INCLINATION    = 51.8787
RA_OF_ASC_NODE = 177.2235
ARG_OF_PERICENTER = 232.7787
MEAN_ANOMALY   = 127.2705

EPHEMERIS_TYPE = 0
CLASSIFICATION_TYPE = U
NORAD_CAT_ID   = 65961
ELEMENT_SET_NO = 999
REV_AT_EPOCH   = 542
BSTAR          = .72563438E-3
MEAN_MOTION_DOT = .24543E-3
MEAN_MOTION_DDOT = 0

CCSDS_OMM_VERS = 2.0
CREATION_DATE  = 
ORIGINATOR     = 

OBJECT_NAME    = KUIPER-00136
OBJECT_ID      = 2025-228R
CENTER_NAME    = EARTH
REF_FRAME      = TEME
TIME_SYSTEM    = UTC
MEAN_ELEMENT_THEORY = SGP/SGP4

EPOCH          = 2025-11-10T05:33:42.655680
MEAN_MOTION    = 15.35019913
ECCENTRICITY   = .0004699
INCLINATION    = 51.8796
RA_OF_ASC_NODE = 177.1782
ARG_OF_PERICENTER = 235.7261
MEAN_ANOMALY   = 124.3280

EPHEMERIS_TYPE = 0
CLASSIFICATION_TYPE = U
NORAD_CAT_ID   = 65962
ELEMENT_SET_NO = 999
REV_AT_EPOCH   = 542
BSTAR          = .15280655E-2
MEAN_MOTION_DOT = .52711E-3
MEAN_MOTION_DDOT = 0

CCSDS_OMM_VERS = 2.0
CREATION_DATE  = 
ORIGINATOR     = 

OBJECT_NAME    = KUIPER-00137
OBJECT_ID      = 2025-228S
CENTER_NAME    = EARTH
REF_FRAME      = TEME
TIME_SYSTEM    = UTC
MEAN_ELEMENT_THEORY = SGP/SGP4

EPOCH          = 2025-11-10T01:01:35.450688
MEAN_MOTION    = 15.34734547
ECCENTRICITY   = .00057366
INCLINATION    = 51.8789
RA_OF_ASC_NODE = 178.1597
ARG_OF_PERICENTER = 249.3069
MEAN_ANOMALY   = 110.7302

EPHEMERIS_TYPE = 0
CLASSIFICATION_TYPE = U
NORAD_CAT_ID   = 65963
ELEMENT_SET_NO = 999
REV_AT_EPOCH   = 539
BSTAR          = .94765128E-3
MEAN_MOTION_DOT = .32164E-3
MEAN_MOTION_DDOT = 0

CCSDS_OMM_VERS = 2.0
CREATION_DATE  = 
ORIGINATOR     = 

OBJECT_NAME    = KUIPER-00138
OBJECT_ID      = 2025-228T
CENTER_NAME    = EARTH
REF_FRAME      = TEME
TIME_SYSTEM    = UTC
MEAN_ELEMENT_THEORY = SGP/SGP4

EPOCH          = 2025-11-10T04:13:57.558432
MEAN_MOTION    = 15.34523890
ECCENTRICITY   = .00058489
INCLINATION    = 51.8777
RA_OF_ASC_NODE = 177.5477
ARG_OF_PERICENTER = 254.9950
MEAN_ANOMALY   = 105.0388

EPHEMERIS_TYPE = 0
CLASSIFICATION_TYPE = U
NORAD_CAT_ID   = 65964
ELEMENT_SET_NO = 999
REV_AT_EPOCH   = 541
BSTAR          = .13874849E-2
MEAN_MOTION_DOT = .47045E-3
MEAN_MOTION_DDOT = 0

CCSDS_OMM_VERS = 2.0
CREATION_DATE  = 
ORIGINATOR     = 

OBJECT_NAME    = KUIPER-00140
OBJECT_ID      = 2025-228U
CENTER_NAME    = EARTH
REF_FRAME      = TEME
TIME_SYSTEM    = UTC
MEAN_ELEMENT_THEORY = SGP/SGP4

EPOCH          = 2025-11-10T01:07:30.606528
MEAN_MOTION    = 15.34422190
ECCENTRICITY   = .00051431
INCLINATION    = 51.8776
RA_OF_ASC_NODE = 178.1835
ARG_OF_PERICENTER = 254.8108
MEAN_ANOMALY   = 105.2309

EPHEMERIS_TYPE = 0
CLASSIFICATION_TYPE = U
NORAD_CAT_ID   = 65965
ELEMENT_SET_NO = 999
REV_AT_EPOCH   = 539
BSTAR          = .52087918E-3
MEAN_MOTION_DOT = .17295E-3
MEAN_MOTION_DDOT = 0

CCSDS_OMM_VERS = 2.0
CREATION_DATE  = 
ORIGINATOR     = 

OBJECT_NAME    = KUIPER-00141
OBJECT_ID      = 2025-228V
CENTER_NAME    = EARTH
REF_FRAME      = TEME
TIME_SYSTEM    = UTC
MEAN_ELEMENT_THEORY = SGP/SGP4

EPOCH          = 2025-11-10T05:37:45.590016
MEAN_MOTION    = 15.34997370
ECCENTRICITY   = .0005632
INCLINATION    = 51.8777
RA_OF_ASC_NODE = 177.1871
ARG_OF_PERICENTER = 237.2750
MEAN_ANOMALY   = 122.7693

EPHEMERIS_TYPE = 0
CLASSIFICATION_TYPE = U
NORAD_CAT_ID   = 65966
ELEMENT_SET_NO = 999
REV_AT_EPOCH   = 542
BSTAR          = .1448135E-2
MEAN_MOTION_DOT = .49886E-3
MEAN_MOTION_DDOT = 0

CCSDS_OMM_VERS = 2.0
CREATION_DATE  = 
ORIGINATOR     = 

OBJECT_NAME    = KUIPER-00146
OBJECT_ID      = 2025-228W
CENTER_NAME    = EARTH
REF_FRAME      = TEME
TIME_SYSTEM    = UTC
MEAN_ELEMENT_THEORY = SGP/SGP4

EPOCH          = 2025-11-10T15:01:31.078560
MEAN_MOTION    = 15.34783376
ECCENTRICITY   = .00059691
INCLINATION    = 51.8780
RA_OF_ASC_NODE = 175.3188
ARG_OF_PERICENTER = 234.3979
MEAN_ANOMALY   = 125.6451

EPHEMERIS_TYPE = 0
CLASSIFICATION_TYPE = U
NORAD_CAT_ID   = 65967
ELEMENT_SET_NO = 999
REV_AT_EPOCH   = 548
BSTAR          = .17803478E-2
MEAN_MOTION_DOT = .61093E-3
MEAN_MOTION_DDOT = 0

CCSDS_OMM_VERS = 2.0
CREATION_DATE  = 
ORIGINATOR     = 

OBJECT_NAME    = KUIPER-00149
OBJECT_ID      = 2025-228X
CENTER_NAME    = EARTH
REF_FRAME      = TEME
TIME_SYSTEM    = UTC
MEAN_ELEMENT_THEORY = SGP/SGP4

EPOCH          = 2025-11-10T14:56:27.549312
MEAN_MOTION    = 15.35138676
ECCENTRICITY   = .00051851
INCLINATION    = 51.8773
RA_OF_ASC_NODE = 175.2899
ARG_OF_PERICENTER = 232.3786
MEAN_ANOMALY   = 127.6730

EPHEMERIS_TYPE = 0
CLASSIFICATION_TYPE = U
NORAD_CAT_ID   = 65968
ELEMENT_SET_NO = 999
REV_AT_EPOCH   = 548
BSTAR          = .16559581E-2
MEAN_MOTION_DOT = .57413E-3
MEAN_MOTION_DDOT = 0

